{"type": "FeatureCollection", "features": [{"type": "Feature", "geometry": {"type": "Point", "coordinates": [-1.5264359712600708, 48.1369514465332]}, "properties": {"vehicle_id": "219", "vehicle_label": "219", "route_id": "6-0064", "ligne": "64", "trip_id": "17_SAMEDI-17196929", "direction_id": 0, "timestamp": 1785611383}}, {"type": "Feature", "geometry": {"type": "Point", "coordinates": [-1.7079869508743286, 48.118064880371094]}, "properties": {"vehicle_id": "223", "vehicle_label": "223", "route_id": "6-0014", "ligne": "14", "trip_id": "17_SAMEDI-17195001", "direction_id": 1, "timestamp": 1785611383}}, {"type": "Feature", "geometry": {"type": "Point", "coordinates": [-1.6563459634780884, 48.13026809692383]}, "properties": {"vehicle_id": "225", "vehicle_label": "225", "route_id": "6-0014", "ligne": "14", "trip_id": "17_SAMEDI-17194973", "direction_id": 0, "timestamp": 1785611383}}, {"type": "Feature", "geometry": {"type": "Point", "coordinates": [-1.6686949729919434, 48.09328079223633]}, "properties": {"vehicle_id": "230", "vehicle_label": "230", "route_id": "6-0013", "ligne": "13", "trip_id": "17_SAMEDI-17431876", "direction_id": 1, "timestamp": 1785611383}}, {"type": "Feature", "geometry": {"type": "Point", "coordinates": [-1.692031979560852, 48.090309143066406]}, "properties": {"vehicle_id": "231", "vehicle_label": "231", "route_id": "6-0013", "ligne": "13", "trip_id": "17_SAMEDI-17431848", "direction_id": 0, "timestamp": 1785611383}}, {"type": "Feature", "geometry": {"type": "Point", "coordinates": [-1.583590030670166, 48.1515998840332]}, "properties": {"vehicle_id": "239", "vehicle_label": "239", "route_id": "6-0050", "ligne": "50", "trip_id": "17_SAMEDI-17247608", "direction_id": 1, "timestamp": 1785611383}}, {"type": "Feature", "geometry": {"type": "Point", "coordinates": [-1.6497329473495483, 48.11909103393555]}, "properties": {"vehicle_id": "248", "vehicle_label": "248", "route_id": "6-0014", "ligne": "14", "trip_id": "17_SAMEDI-17194999", "direction_id": 1, "timestamp": 1785611383}}, {"type": "Feature", "geometry": {"type": "Point", "coordinates": [-1.7578539848327637, 48.09910583496094]}, "properties": {"vehicle_id": "253", "vehicle_label": "253", "route_id": "6-0055", "ligne": "55", "trip_id": "17_SAMEDI-17195418", "direction_id": 0, "timestamp": 1785611383}}, {"type": "Feature", "geometry": {"type": "Point", "coordinates": [-1.6902849674224854, 48.10094451904297]}, "properties": {"vehicle_id": "342", "vehicle_label": "342", "route_id": "6-0006", "ligne": "06", "trip_id": "17_SAMEDI-17470946", "direction_id": 0, "timestamp": 1785611383}}, {"type": "Feature", "geometry": {"type": "Point", "coordinates": [-1.675184965133667, 48.097900390625]}, "properties": {"vehicle_id": "343", "vehicle_label": "343", "route_id": "6-0003", "ligne": "03", "trip_id": "17_SAMEDI-17304103", "direction_id": 1, "timestamp": 1785611383}}, {"type": "Feature", "geometry": {"type": "Point", "coordinates": [-1.6642680168151855, 48.13093566894531]}, "properties": {"vehicle_id": "347", "vehicle_label": "347", "route_id": "6-0003", "ligne": "03", "trip_id": "17_SAMEDI-17304113", "direction_id": 0, "timestamp": 1785611383}}, {"type": "Feature", "geometry": {"type": "Point", "coordinates": [-1.6073089838027954, 48.115474700927734]}, "properties": {"vehicle_id": "357", "vehicle_label": "357", "route_id": "6-0006", "ligne": "06", "trip_id": "17_SAMEDI-17471006", "direction_id": 1, "timestamp": 1785611383}}, {"type": "Feature", "geometry": {"type": "Point", "coordinates": [-1.679690957069397, 48.0968132019043]}, "properties": {"vehicle_id": "363", "vehicle_label": "363", "route_id": "6-0003", "ligne": "03", "trip_id": "17_SAMEDI-17304575", "direction_id": 0, "timestamp": 1785611384}}, {"type": "Feature", "geometry": {"type": "Point", "coordinates": [-1.600532054901123, 48.12312316894531]}, "properties": {"vehicle_id": "366", "vehicle_label": "366", "route_id": "6-0006", "ligne": "06", "trip_id": "17_SAMEDI-17470947", "direction_id": 0, "timestamp": 1785611384}}, {"type": "Feature", "geometry": {"type": "Point", "coordinates": [-1.6784780025482178, 48.10985565185547]}, "properties": {"vehicle_id": "370", "vehicle_label": "370", "route_id": "6-0006", "ligne": "06", "trip_id": "17_SAMEDI-17470956", "direction_id": 1, "timestamp": 1785611384}}, {"type": "Feature", "geometry": {"type": "Point", "coordinates": [-1.641247034072876, 48.11306381225586]}, "properties": {"vehicle_id": "371", "vehicle_label": "371", "route_id": "6-0004", "ligne": "04", "trip_id": "17_SAMEDI-17469876", "direction_id": 0, "timestamp": 1785611384}}, {"type": "Feature", "geometry": {"type": "Point", "coordinates": [-1.6499099731445312, 48.119110107421875]}, "properties": {"vehicle_id": "372", "vehicle_label": "372", "route_id": "6-0005", "ligne": "05", "trip_id": "17_SAMEDI-17470007", "direction_id": 0, "timestamp": 1785611384}}, {"type": "Feature", "geometry": {"type": "Point", "coordinates": [-1.6198760271072388, 48.132957458496094]}, "properties": {"vehicle_id": "374", "vehicle_label": "374", "route_id": "6-0002", "ligne": "02", "trip_id": "17_SAMEDI-17811879", "direction_id": 0, "timestamp": 1785611384}}, {"type": "Feature", "geometry": {"type": "Point", "coordinates": [-1.693068027496338, 48.13560104370117]}, "properties": {"vehicle_id": "375", "vehicle_label": "375", "route_id": "6-0004", "ligne": "04", "trip_id": "17_SAMEDI-17469935", "direction_id": 1, "timestamp": 1785611384}}, {"type": "Feature", "geometry": {"type": "Point", "coordinates": [-1.6611000299453735, 48.102516174316406]}, "properties": {"vehicle_id": "376", "vehicle_label": "376", "route_id": "6-0001", "ligne": "01", "trip_id": "17_SAMEDI-17258864", "direction_id": 0, "timestamp": 1785611384}}, {"type": "Feature", "geometry": {"type": "Point", "coordinates": [-1.665706992149353, 48.105472564697266]}, "properties": {"vehicle_id": "378", "vehicle_label": "378", "route_id": "6-0002", "ligne": "02", "trip_id": "17_SAMEDI-17811878", "direction_id": 1, "timestamp": 1785611384}}, {"type": "Feature", "geometry": {"type": "Point", "coordinates": [-1.6954760551452637, 48.10013961791992]}, "properties": {"vehicle_id": "379", "vehicle_label": "379", "route_id": "6-0005", "ligne": "05", "trip_id": "17_SAMEDI-17470005", "direction_id": 1, "timestamp": 1785611384}}, {"type": "Feature", "geometry": {"type": "Point", "coordinates": [-1.6714650392532349, 48.15536117553711]}, "properties": {"vehicle_id": "382", "vehicle_label": "382", "route_id": "6-0001", "ligne": "01", "trip_id": "17_SAMEDI-17258876", "direction_id": 0, "timestamp": 1785611384}}, {"type": "Feature", "geometry": {"type": "Point", "coordinates": [-1.6780179738998413, 48.10968017578125]}, "properties": {"vehicle_id": "383", "vehicle_label": "383", "route_id": "6-0001", "ligne": "01", "trip_id": "17_SAMEDI-17258852", "direction_id": 1, "timestamp": 1785611384}}, {"type": "Feature", "geometry": {"type": "Point", "coordinates": [-1.6548880338668823, 48.097694396972656]}, "properties": {"vehicle_id": "385", "vehicle_label": "385", "route_id": "6-0002", "ligne": "02", "trip_id": "17_SAMEDI-17811873", "direction_id": 0, "timestamp": 1785611384}}, {"type": "Feature", "geometry": {"type": "Point", "coordinates": [-1.6650910377502441, 48.11007308959961]}, "properties": {"vehicle_id": "386", "vehicle_label": "386", "route_id": "6-0004", "ligne": "04", "trip_id": "17_SAMEDI-17469934", "direction_id": 1, "timestamp": 1785611384}}, {"type": "Feature", "geometry": {"type": "Point", "coordinates": [-1.658493995666504, 48.11616134643555]}, "properties": {"vehicle_id": "460", "vehicle_label": "460", "route_id": "6-0010", "ligne": "10", "trip_id": "17_SAMEDI-17402766", "direction_id": 1, "timestamp": 1785611384}}, {"type": "Feature", "geometry": {"type": "Point", "coordinates": [-1.7160290479660034, 48.116302490234375]}, "properties": {"vehicle_id": "608", "vehicle_label": "608", "route_id": "6-0014", "ligne": "14", "trip_id": "17_SAMEDI-17194972", "direction_id": 0, "timestamp": 1785611385}}, {"type": "Feature", "geometry": {"type": "Point", "coordinates": [-1.7433940172195435, 48.02348327636719]}, "properties": {"vehicle_id": "701", "vehicle_label": "701", "route_id": "6-0007", "ligne": "07", "trip_id": "17_SAMEDI-17290970", "direction_id": 0, "timestamp": 1785611365}}, {"type": "Feature", "geometry": {"type": "Point", "coordinates": [-1.6291660070419312, 48.127723693847656]}, "properties": {"vehicle_id": "735", "vehicle_label": "735", "route_id": "6-0002", "ligne": "02", "trip_id": "17_SAMEDI-17811877", "direction_id": 1, "timestamp": 1785611365}}, {"type": "Feature", "geometry": {"type": "Point", "coordinates": [-1.6860649585723877, 48.147281646728516]}, "properties": {"vehicle_id": "943", "vehicle_label": "943", "route_id": "6-0001", "ligne": "01", "trip_id": "17_SAMEDI-17258856", "direction_id": 1, "timestamp": 1785611366}}, {"type": "Feature", "geometry": {"type": "Point", "coordinates": [-1.7087910175323486, 48.084808349609375]}, "properties": {"vehicle_id": "946", "vehicle_label": "946", "route_id": "6-0007", "ligne": "07", "trip_id": "17_SAMEDI-17290972", "direction_id": 1, "timestamp": 1785611366}}, {"type": "Feature", "geometry": {"type": "Point", "coordinates": [-1.688938021659851, 48.1186637878418]}, "properties": {"vehicle_id": "950", "vehicle_label": "950", "route_id": "6-0001", "ligne": "01", "trip_id": "17_SAMEDI-17258875", "direction_id": 0, "timestamp": 1785611366}}, {"type": "Feature", "geometry": {"type": "Point", "coordinates": [-1.6085209846496582, 48.08571243286133]}, "properties": {"vehicle_id": "957", "vehicle_label": "957", "route_id": "6-0001", "ligne": "01", "trip_id": "17_SAMEDI-17258868", "direction_id": 1, "timestamp": 1785611366}}, {"type": "Feature", "geometry": {"type": "Point", "coordinates": [-1.6972750425338745, 48.13671875]}, "properties": {"vehicle_id": "1001", "vehicle_label": "1001", "route_id": "6-0068", "ligne": "68", "trip_id": "17_SAMEDI-17291946", "direction_id": 1, "timestamp": 1785611366}}, {"type": "Feature", "geometry": {"type": "Point", "coordinates": [-1.7680360078811646, 48.16047286987305]}, "properties": {"vehicle_id": "1011", "vehicle_label": "1011", "route_id": "6-0077", "ligne": "77", "trip_id": "17_SAMEDI-17291278", "direction_id": 1, "timestamp": 1785611366}}, {"type": "Feature", "geometry": {"type": "Point", "coordinates": [-1.8453799486160278, 48.173255920410156]}, "properties": {"vehicle_id": "1012", "vehicle_label": "1012", "route_id": "6-0081", "ligne": "81", "trip_id": "17_SAMEDI-17291669", "direction_id": 0, "timestamp": 1785611366}}, {"type": "Feature", "geometry": {"type": "Point", "coordinates": [-1.6512019634246826, 48.179019927978516]}, "properties": {"vehicle_id": "1013", "vehicle_label": "1013", "route_id": "6-0051", "ligne": "51", "trip_id": "17_SAMEDI-17225539", "direction_id": 1, "timestamp": 1785611366}}, {"type": "Feature", "geometry": {"type": "Point", "coordinates": [-1.6618260145187378, 48.17708969116211]}, "properties": {"vehicle_id": "1014", "vehicle_label": "1014", "route_id": "6-0078", "ligne": "78", "trip_id": "17_SAMEDI-17291417", "direction_id": 1, "timestamp": 1785611366}}, {"type": "Feature", "geometry": {"type": "Point", "coordinates": [-1.7573339939117432, 48.1315803527832]}, "properties": {"vehicle_id": "1027", "vehicle_label": "1027", "route_id": "6-0052", "ligne": "52", "trip_id": "17_SAMEDI-17201933", "direction_id": 0, "timestamp": 1785611366}}, {"type": "Feature", "geometry": {"type": "Point", "coordinates": [-1.7187319993972778, 48.155452728271484]}, "properties": {"vehicle_id": "1029", "vehicle_label": "1029", "route_id": "6-0052", "ligne": "52", "trip_id": "17_SAMEDI-17201920", "direction_id": 1, "timestamp": 1785611366}}, {"type": "Feature", "geometry": {"type": "Point", "coordinates": [-1.7959339618682861, 48.1016960144043]}, "properties": {"vehicle_id": "2035", "vehicle_label": "2035", "route_id": "6-0054", "ligne": "54", "trip_id": "17_SAMEDI-17195677", "direction_id": 1, "timestamp": 1785611367}}, {"type": "Feature", "geometry": {"type": "Point", "coordinates": [-1.853371024131775, 48.12284851074219]}, "properties": {"vehicle_id": "3009", "vehicle_label": "3009", "route_id": "6-0053", "ligne": "53", "trip_id": "17_SAMEDI-17195331", "direction_id": 1, "timestamp": 1785611368}}, {"type": "Feature", "geometry": {"type": "Point", "coordinates": [-1.704671025276184, 48.11347579956055]}, "properties": {"vehicle_id": "3011", "vehicle_label": "3011", "route_id": "6-0053", "ligne": "53", "trip_id": "17_SAMEDI-17195352", "direction_id": 0, "timestamp": 1785611368}}, {"type": "Feature", "geometry": {"type": "Point", "coordinates": [-1.6426750421524048, 48.08735275268555]}, "properties": {"vehicle_id": "4002", "vehicle_label": "4002", "route_id": "6-0012", "ligne": "12", "trip_id": "17_SAMEDI-17227053", "direction_id": 1, "timestamp": 1785611368}}, {"type": "Feature", "geometry": {"type": "Point", "coordinates": [-1.6376320123672485, 48.1042366027832]}, "properties": {"vehicle_id": "4003", "vehicle_label": "4003", "route_id": "6-0011", "ligne": "11", "trip_id": "17_SAMEDI-17464149", "direction_id": 0, "timestamp": 1785611368}}, {"type": "Feature", "geometry": {"type": "Point", "coordinates": [-1.7149770259857178, 48.107845306396484]}, "properties": {"vehicle_id": "4004", "vehicle_label": "4004", "route_id": "6-0011", "ligne": "11", "trip_id": "17_SAMEDI-17464148", "direction_id": 0, "timestamp": 1785611368}}, {"type": "Feature", "geometry": {"type": "Point", "coordinates": [-1.5497159957885742, 48.11333465576172]}, "properties": {"vehicle_id": "4033", "vehicle_label": "4033", "route_id": "6-0067", "ligne": "67", "trip_id": "17_SAMEDI-17196960", "direction_id": 1, "timestamp": 1785611368}}, {"type": "Feature", "geometry": {"type": "Point", "coordinates": [-1.6977449655532837, 48.1348876953125]}, "properties": {"vehicle_id": "4034", "vehicle_label": "4034", "route_id": "6-0012", "ligne": "12", "trip_id": "17_SAMEDI-17227056", "direction_id": 0, "timestamp": 1785611368}}, {"type": "Feature", "geometry": {"type": "Point", "coordinates": [-1.6984820365905762, 48.04133605957031]}, "properties": {"vehicle_id": "4035", "vehicle_label": "4035", "route_id": "6-0072", "ligne": "72", "trip_id": "17_SAMEDI-17202895", "direction_id": 0, "timestamp": 1785611368}}, {"type": "Feature", "geometry": {"type": "Point", "coordinates": [-1.6969890594482422, 48.0]}, "properties": {"vehicle_id": "4038", "vehicle_label": "4038", "route_id": "6-0072", "ligne": "72", "trip_id": "17_SAMEDI-17202857", "direction_id": 1, "timestamp": 1785611368}}, {"type": "Feature", "geometry": {"type": "Point", "coordinates": [-1.7199020385742188, 48.042144775390625]}, "properties": {"vehicle_id": "5001", "vehicle_label": "5001", "route_id": "6-0059", "ligne": "59", "trip_id": "17_SAMEDI-17196682", "direction_id": 1, "timestamp": 1785611368}}, {"type": "Feature", "geometry": {"type": "Point", "coordinates": [-1.6554169654846191, 48.01924133300781]}, "properties": {"vehicle_id": "5003", "vehicle_label": "5003", "route_id": "6-0061", "ligne": "61", "trip_id": "17_SAMEDI-17225976", "direction_id": 1, "timestamp": 1785611368}}, {"type": "Feature", "geometry": {"type": "Point", "coordinates": [-1.6705470085144043, 47.99534225463867]}, "properties": {"vehicle_id": "5005", "vehicle_label": "5005", "route_id": "6-0074", "ligne": "74", "trip_id": "17_SAMEDI-17198863", "direction_id": 0, "timestamp": 1785611369}}, {"type": "Feature", "geometry": {"type": "Point", "coordinates": [-1.7421150207519531, 48.023311614990234]}, "properties": {"vehicle_id": "5006", "vehicle_label": "5006", "route_id": "6-0059", "ligne": "59", "trip_id": "17_SAMEDI-17196671", "direction_id": 0, "timestamp": 1785611369}}, {"type": "Feature", "geometry": {"type": "Point", "coordinates": [-1.6635810136795044, 48.0614128112793]}, "properties": {"vehicle_id": "5007", "vehicle_label": "5007", "route_id": "6-0061", "ligne": "61", "trip_id": "17_SAMEDI-17225938", "direction_id": 0, "timestamp": 1785611369}}, {"type": "Feature", "geometry": {"type": "Point", "coordinates": [-1.6777570247650146, 48.10733413696289]}, "properties": {"vehicle_id": "6027", "vehicle_label": "6027", "route_id": "6-0054", "ligne": "54", "trip_id": "17_SAMEDI-17195672", "direction_id": 0, "timestamp": 1785611369}}, {"type": "Feature", "geometry": {"type": "Point", "coordinates": [-1.616557002067566, 48.05926513671875]}, "properties": {"vehicle_id": "6028", "vehicle_label": "6028", "route_id": "6-0062", "ligne": "62", "trip_id": "17_SAMEDI-17250560", "direction_id": 0, "timestamp": 1785611369}}, {"type": "Feature", "geometry": {"type": "Point", "coordinates": [-1.8505569696426392, 48.1013069152832]}, "properties": {"vehicle_id": "6029", "vehicle_label": "6029", "route_id": "6-0054", "ligne": "54", "trip_id": "17_SAMEDI-17195673", "direction_id": 0, "timestamp": 1785611369}}, {"type": "Feature", "geometry": {"type": "Point", "coordinates": [-1.5904289484024048, 48.04143524169922]}, "properties": {"vehicle_id": "6030", "vehicle_label": "6030", "route_id": "6-0062", "ligne": "62", "trip_id": "17_SAMEDI-17250586", "direction_id": 1, "timestamp": 1785611369}}, {"type": "Feature", "geometry": {"type": "Point", "coordinates": [-1.6222349405288696, 48.05900573730469]}, "properties": {"vehicle_id": "6034", "vehicle_label": "6034", "route_id": "6-0073", "ligne": "73", "trip_id": "17_SAMEDI-17251982", "direction_id": 0, "timestamp": 1785611369}}, {"type": "Feature", "geometry": {"type": "Point", "coordinates": [-1.8417160511016846, 48.07606887817383]}, "properties": {"vehicle_id": "6039", "vehicle_label": "6039", "route_id": "6-0055", "ligne": "55", "trip_id": "17_SAMEDI-17195430", "direction_id": 1, "timestamp": 1785611369}}]}